CRE (WAAS/PRN 138)      
1 28868U 05036A   24268.64991226 -.00000088  00000+0  00000+0 0  9992
2 28868   2.6856  84.3730 0002697  72.5414 333.7264  1.00271994 40132
IOR-W (EGNOS/PRN 126)   
1 28899U 05044A   24269.53799604 -.00000274  00000+0  00000+0 0  9997
2 28899   4.3013  42.8039 0002687 173.0738 126.1478  1.00271277 69187
GSAT-8 (GAGAN/PRN 127)  
1 37605U 11022A   24269.54027794  .00000069  00000+0  00000+0 0  9991
2 37605   0.4948  89.8698 0007100 152.5321  12.0333  1.00273353 48922
LUCH 5A (SDCM/PRN 140)  
1 37951U 11074B   24268.80403913 -.00000061  00000+0  00000+0 0  9994
2 37951   7.1380  83.3785 0004559 103.9270 273.2375  1.00270331 46731
SES-5 (EGNOS/PRN 136)   
1 38652U 12036A   24269.31577892  .00000018  00000+0  00000+0 0  9998
2 38652   0.0695 297.0813 0001987 258.3706 287.8325  1.00270333 44756
GSAT-10 (GAGAN/PRN 128) 
1 38779U 12051B   24269.23521323 -.00000180  00000+0  00000+0 0  9995
2 38779   0.0093 186.3022 0002938  69.2744 276.6596  1.00273255 43973
LUCH 5B (SDCM/PRN 125)  
1 38977U 12061A   24269.16853160 -.00000148  00000+0  00000+0 0  9999
2 38977   9.1073  55.8016 0006676 144.2289 208.7915  1.00271073 43859
ASTRA 5B (EGNOS/PRN 123)
1 39617U 14011B   24268.24654337  .00000124  00000+0  00000+0 0  9994
2 39617   0.0734 310.7248 0003677 260.6112 264.4888  1.00273698 38342
LUCH 5V (SDCM/PRN 141)  
1 39727U 14023A   24269.11909670 -.00000283  00000+0  00000+0 0  9996
2 39727   3.5460  75.2642 0003706 152.3512 274.4433  1.00273900556194
GSAT-15 (GAGAN/PRN 139) 
1 41028U 15065A   24268.87688434 -.00000273  00000+0  00000+0 0  9993
2 41028   0.0401 273.9373 0002207 267.0309 232.4122  1.00271784 32544
E 117 W B (WAAS/PRN 131)
1 41589U 16038B   24269.14854912 -.00000027  00000+0  00000+0 0  9990
2 41589   0.0247  29.2186 0000335  58.9978 212.7300  1.00271779 30380
SES-15 (WAAS/PRN 133)   
1 42709U 17026A   24269.20537625  .00000045  00000+0  00000+0 0  9998
2 42709   0.0409  10.6894 0000424 206.8274  91.7775  1.00268867 27861
QZS-2 (QZSS/PRN 194)    
1 42738U 17028A   24267.83882727 -.00000173  00000+0  00000+0 0  9998
2 42738  40.4218 252.3393 0748340 270.4728 282.6476  1.00258480  1293
QZS-3 (QZSS/PRN 199)    
1 42917U 17048A   24268.98244013 -.00000363  00000+0  00000+0 0  9997
2 42917   0.0720 139.3816 0002363  46.8566 298.7275  1.00267652 26045
QZS-4 (QZSS/PRN 195)    
1 42965U 17062A   24268.61628042 -.00000345  00000+0  00000+0 0  9994
2 42965  40.4673 351.5322 0751619 269.7376 104.6597  1.00274376 25483
BEIDOU-3 G1 (PRN 130)   
1 43683U 18085A   24269.54910461 -.00000293  00000+0  00000+0 0  9992
2 43683   2.4350 105.8853 0002166  37.7983 198.8714  1.00269646 21737
BEIDOU-3 G2 (PRN 144)   
1 45344U 20017A   24268.68709704 -.00000155  00000+0  00000+0 0  9993
2 45344   2.4471  33.1669 0003682 188.3376 109.8888  1.00272366 16931
BEIDOU-3 G3 (PRN 143)   
1 45807U 20040A   24269.05068557 -.00000367  00000+0  00000+0 0  9994
2 45807   0.9632  52.1914 0002362 326.1675 114.6811  1.00266465 15762
GALAXY 30 (WAAS/PRN 135)
1 46114U 20056C   24269.14698528  .00000022  00000+0  00000+0 0  9997
2 46114   0.0179 154.6150 0002291  41.8360  95.9180  1.00272543 15083
QZS-1R (QZSS/PRN 196)   
1 49336U 21096A   24268.84261289 -.00000260  00000+0  00000+0 0  9992
2 49336  36.1501  89.0151 0744068 269.8654  83.4911  1.00288032 10681
